COMMENT,ORIGINATOR,NORAD_CAT_ID,OBJECT_NAME,OBJECT_TYPE,CLASSIFICATION_TYPE,INTLDES,EPOCH,EPOCH_MICROSECONDS,MEAN_MOTION,ECCENTRICITY,INCLINATION,RA_OF_ASC_NODE,ARG_OF_PERICENTER,MEAN_ANOMALY,EPHEMERIS_TYPE,ELEMENT_SET_NO,REV_AT_EPOCH,BSTAR,MEAN_MOTION_DOT,MEAN_MOTION_DDOT,FILE,TLE_LINE0,TLE_LINE1,TLE_LINE2,OBJECT_ID,OBJECT_NUMBER,SEMIMAJOR_AXIS,PERIOD,APOGEE,PERIGEE,DECAYED
GENERATED VIA SPACETRACK.ORG API,18 SPCS,44336,ARIANE 5 DEB (SYLDA),DEBRIS,U,19034D,2024-11-15 09:56:58,79904,4.66398073,0.5648535,5.9394,47.0452,186.2168,161.526,0,999,5673,0.013091,0.00414899,0,4554610,0 ARIANE 5 DEB (SYLDA),1 44336U 19034D   24320.41456111  .00414899  00000-0  13091-1 0  9991,2 44336   5.9394  47.0452 5648535 186.2168 161.5260  4.66398073 56730,2019-034D,44336,15132.035,308.749,17301.283,206.517,0
GENERATED VIA SPACETRACK.ORG API,18 SPCS,44336,ARIANE 5 DEB (SYLDA),DEBRIS,U,19034D,2024-11-15 20:12:02,590560,4.66733444,0.56464,5.941,46.6021,187.0987,158.9566,0,999,5675,0.012669,0.00401203,0,4554947,0 ARIANE 5 DEB (SYLDA),1 44336U 19034D   24320.84169665  .00401203  00000-0  12669-1 0  9998,2 44336   5.9410  46.6021 5646400 187.0987 158.9566  4.66733444 56759,2019-034D,44336,15124.786,308.527,17286.71,206.592,0
GENERATED VIA SPACETRACK.ORG API,18 SPCS,44336,ARIANE 5 DEB (SYLDA),DEBRIS,U,19034D,2024-11-16 01:19:24,788064,4.66901482,0.5645294,5.9411,46.3783,187.544,157.6654,0,999,5673,0.013199,0.00417197,0,4555010,0 ARIANE 5 DEB (SYLDA),1 44336U 19034D   24321.05514801  .00417197  00000-0  13199-1 0  9996,2 44336   5.9411  46.3783 5645294 187.5440 157.6654  4.66901482 56732,2019-034D,44336,15121.156,308.416,17279.359,206.684,0
GENERATED VIA SPACETRACK.ORG API,18 SPCS,44336,ARIANE 5 DEB (SYLDA),DEBRIS,U,19034D,2024-11-16 01:19:24,788064,4.66901482,0.5645294,5.9411,46.3783,187.544,157.6654,0,999,5676,0.013199,0.00417197,0,4555594,0 ARIANE 5 DEB (SYLDA),1 44336U 19034D   24321.05514801  .00417197  00000-0  13199-1 0  9996,2 44336   5.9411  46.3783 5645294 187.5440 157.6654  4.66901482 56765,2019-034D,44336,15121.156,308.416,17279.359,206.684,0
GENERATED VIA SPACETRACK.ORG API,18 SPCS,44336,ARIANE 5 DEB (SYLDA),DEBRIS,U,19034D,2024-11-16 06:26:40,676640,4.67067072,0.5644387,5.9415,46.1558,187.9886,156.3797,0,999,5674,0.012646,0.00401976,0,4555369,0 ARIANE 5 DEB (SYLDA),1 44336U 19034D   24321.26852635  .00401976  00000-0  12646-1 0  9993,2 44336   5.9415  46.1558 5644387 187.9886 156.3797  4.67067072 56748,2019-034D,44336,15117.582,308.307,17272.396,206.499,0
GENERATED VIA SPACETRACK.ORG API,18 SPCS,44336,ARIANE 5 DEB (SYLDA),DEBRIS,U,19034D,2024-11-16 16:40:55,41600,4.67385462,0.5642442,5.9424,45.7138,188.8695,153.8462,0,999,5676,0.011919,0.0037984,0,4555651,0 ARIANE 5 DEB (SYLDA),1 44336U 19034D   24321.69508150  .00379840  00000-0  11919-1 0  9996,2 44336   5.9424  45.7138 5642442 188.8695 153.8462  4.67385462 56764,2019-034D,44336,15110.716,308.097,17258.715,206.447,0
GENERATED VIA SPACETRACK.ORG API,18 SPCS,44336,ARIANE 5 DEB (SYLDA),DEBRIS,U,19034D,2024-11-17 18:14:44,754144,4.68167121,0.5637672,5.9448,44.6036,191.0813,147.5703,0,999,5681,0.011598,0.00371991,0,4556272,0 ARIANE 5 DEB (SYLDA),1 44336U 19034D   24322.76024021  .00371991  00000-0  11598-1 0  9997,2 44336   5.9448  44.6036 5637672 191.0813 147.5703  4.68167121 56817,2019-034D,44336,15093.892,307.582,17225.198,206.316,0
GENERATED VIA SPACETRACK.ORG API,18 SPCS,44336,ARIANE 5 DEB (SYLDA),DEBRIS,U,19034D,2024-11-17 18:14:44,754144,4.68167121,0.5637672,5.9448,44.6036,191.0813,147.5703,0,999,5684,0.011598,0.00371991,0,4556486,0 ARIANE 5 DEB (SYLDA),1 44336U 19034D   24322.76024021  .00371991  00000-0  11598-1 0  9997,2 44336   5.9448  44.6036 5637672 191.0813 147.5703  4.68167121 56840,2019-034D,44336,15093.892,307.582,17225.198,206.316,0
GENERATED VIA SPACETRACK.ORG API,18 SPCS,44336,ARIANE 5 DEB (SYLDA),DEBRIS,U,19034D,2024-11-18 09:33:52,384608,4.68632239,0.5634776,5.9463,43.9376,192.4098,143.8657,0,999,5684,0.010929,0.0035102,0,4556827,0 ARIANE 5 DEB (SYLDA),1 44336U 19034D   24323.39852297  .00351020  00000-0  10929-1 0  9999,2 44336   5.9463  43.9376 5634776 192.4098 143.8657  4.68632239 56842,2019-034D,44336,15083.903,307.277,17205.21,206.327,0
GENERATED VIA SPACETRACK.ORG API,18 SPCS,44336,ARIANE 5 DEB (SYLDA),DEBRIS,U,19034D,2024-11-18 09:33:52,384608,4.68632239,0.5634776,5.9463,43.9376,192.4098,143.8657,0,999,5687,0.010929,0.0035102,0,4557070,0 ARIANE 5 DEB (SYLDA),1 44336U 19034D   24323.39852297  .00351020  00000-0  10929-1 0  9999,2 44336   5.9463  43.9376 5634776 192.4098 143.8657  4.68632239 56875,2019-034D,44336,15083.903,307.277,17205.21,206.327,0
GENERATED VIA SPACETRACK.ORG API,18 SPCS,44336,ARIANE 5 DEB (SYLDA),DEBRIS,U,19034D,2024-11-18 14:40:03,62784,4.68788931,0.5633795,5.9467,43.714,192.856,142.6332,0,999,5688,0.011712,0.00376255,0,4557409,0 ARIANE 5 DEB (SYLDA),1 44336U 19034D   24323.61114656  .00376255  00000-0  11712-1 0  9992,2 44336   5.9467  43.7140 5633795 192.8560 142.6332  4.68788931 56883,2019-034D,44336,15080.542,307.174,17198.475,206.339,0
GENERATED VIA SPACETRACK.ORG API,18 SPCS,44336,ARIANE 5 DEB (SYLDA),DEBRIS,U,19034D,2024-11-18 14:40:03,62784,4.68788931,0.5633795,5.9467,43.714,192.856,142.6332,0,999,5685,0.011712,0.00376255,0,4557468,0 ARIANE 5 DEB (SYLDA),1 44336U 19034D   24323.61114656  .00376255  00000-0  11712-1 0  9992,2 44336   5.9467  43.7140 5633795 192.8560 142.6332  4.68788931 56850,2019-034D,44336,15080.542,307.174,17198.475,206.339,0
GENERATED VIA SPACETRACK.ORG API,18 SPCS,44336,ARIANE 5 DEB (SYLDA),DEBRIS,U,19034D,2024-11-19 11:03:50,50944,4.6939895,0.5629985,5.9484,42.827,194.6221,137.8137,0,999,5692,0.011409,0.00366972,0,4558021,0 ARIANE 5 DEB (SYLDA),1 44336U 19034D   24324.46099596  .00366972  00000-0  11409-1 0  9999,2 44336   5.9484  42.8270 5629985 194.6221 137.8137  4.69398950 56929,2019-034D,44336,15067.473,306.775,17172.303,206.373,0
GENERATED VIA SPACETRACK.ORG API,18 SPCS,44336,ARIANE 5 DEB (SYLDA),DEBRIS,U,19034D,2024-11-19 11:03:50,50944,4.6939895,0.5629985,5.9484,42.827,194.6221,137.8137,0,999,5689,0.011409,0.00366972,0,4558110,0 ARIANE 5 DEB (SYLDA),1 44336U 19034D   24324.46099596  .00366972  00000-0  11409-1 0  9999,2 44336   5.9484  42.8270 5629985 194.6221 137.8137  4.69398950 56895,2019-034D,44336,15067.473,306.775,17172.303,206.373,0
GENERATED VIA SPACETRACK.ORG API,18 SPCS,44336,ARIANE 5 DEB (SYLDA),DEBRIS,U,19034D,2024-11-19 16:09:32,356224,4.69550921,0.5628999,5.9485,42.6037,195.0681,136.6125,0,999,5693,0.011392,0.00365979,0,4558927,0 ARIANE 5 DEB (SYLDA),1 44336U 19034D   24324.67329116  .00365979  00000-0  11392-1 0  9993,2 44336   5.9485  42.6037 5628999 195.0681 136.6125  4.69550921 56931,2019-034D,44336,15064.222,306.676,17165.736,206.438,0
GENERATED VIA SPACETRACK.ORG API,18 SPCS,44336,ARIANE 5 DEB (SYLDA),DEBRIS,U,19034D,2024-11-20 17:36:39,934656,4.70349145,0.5624149,5.9507,41.4928,197.2811,130.7487,0,999,5695,0.011656,0.00377086,0,4558977,0 ARIANE 5 DEB (SYLDA),1 44336U 19034D   24325.73379554  .00377086  00000-0  11656-1 0  9997,2 44336   5.9507  41.4928 5624149 197.2811 130.7487  4.70349145 56958,2019-034D,44336,15047.174,306.156,17131.793,206.284,0
GENERATED VIA SPACETRACK.ORG API,18 SPCS,44336,ARIANE 5 DEB (SYLDA),DEBRIS,U,19034D,2024-11-20 17:36:39,934656,4.70349145,0.5624149,5.9507,41.4928,197.2811,130.7487,0,999,5698,0.011656,0.00377086,0,4559180,0 ARIANE 5 DEB (SYLDA),1 44336U 19034D   24325.73379554  .00377086  00000-0  11656-1 0  9997,2 44336   5.9507  41.4928 5624149 197.2811 130.7487  4.70349145 56981,2019-034D,44336,15047.174,306.156,17131.793,206.284,0
GENERATED VIA SPACETRACK.ORG API,18 SPCS,44336,ARIANE 5 DEB (SYLDA),DEBRIS,U,19034D,2024-11-20 17:36:39,722112,4.70354937,0.562417,5.9507,41.4917,197.2828,130.744,0,999,5695,0.012144,0.00393798,0,4559286,0 ARIANE 5 DEB (SYLDA),1 44336U 19034D   24325.73379308  .00393798  00000-0  12144-1 0  9995,2 44336   5.9507  41.4917 5624170 197.2828 130.7440  4.70354937 56952,2019-034D,44336,15047.05,306.152,17131.632,206.198,0
GENERATED VIA SPACETRACK.ORG API,18 SPCS,44336,ARIANE 5 DEB (SYLDA),DEBRIS,U,19034D,2024-11-21 08:51:42,613344,4.70848923,0.5621095,5.9517,40.825,198.6114,127.3056,0,999,5701,0.011686,0.00379416,0,4559469,0 ARIANE 5 DEB (SYLDA),1 44336U 19034D   24326.36924321  .00379416  00000-0  11686-1 0  9997,2 44336   5.9517  40.8250 5621095 198.6114 127.3056  4.70848923 57018,2019-034D,44336,15036.524,305.831,17110.562,206.216,0
GENERATED VIA SPACETRACK.ORG API,18 SPCS,44336,ARIANE 5 DEB (SYLDA),DEBRIS,U,19034D,2024-11-21 19:01:14,471040,4.71175594,0.5619076,5.9525,40.3799,199.497,125.048,0,999,5703,0.011798,0.00383582,0,4559852,0 ARIANE 5 DEB (SYLDA),1 44336U 19034D   24326.79252860  .00383582  00000-0  11798-1 0  9999,2 44336   5.9525  40.3799 5619076 199.4970 125.0480  4.71175594 57031,2019-034D,44336,15029.573,305.619,17096.67,206.207,0
GENERATED VIA SPACETRACK.ORG API,18 SPCS,44336,ARIANE 5 DEB (SYLDA),DEBRIS,U,19034D,2024-11-22 00:05:51,587520,4.71342183,0.5618007,5.9529,40.1579,199.9395,123.9314,0,999,5701,0.012135,0.00394177,0,4559978,0 ARIANE 5 DEB (SYLDA),1 44336U 19034D   24327.00406930  .00394177  00000-0  12135-1 0  9991,2 44336   5.9529  40.1579 5618007 199.9395 123.9314  4.71342183 57019,2019-034D,44336,15026.032,305.511,17089.532,206.262,0
GENERATED VIA SPACETRACK.ORG API,18 SPCS,44336,ARIANE 5 DEB (SYLDA),DEBRIS,U,19034D,2024-11-22 15:19:06,493440,4.71833605,0.5614944,5.9542,39.4916,201.2693,120.6173,0,999,5707,0.012034,0.00391275,0,4560545,0 ARIANE 5 DEB (SYLDA),1 44336U 19034D   24327.63826960  .00391275  00000-0  12034-1 0  9993,2 44336   5.9542  39.4916 5614944 201.2693 120.6173  4.71833605 57071,2019-034D,44336,15015.597,305.192,17068.635,206.288,0
